JILIN-1 GAOFEN 03D50    
1 54690U 22167J   26186.31980050  .00014218  00000+0  42196-3 0  9991
2 54690  97.6851 354.9091 0006019  52.7365 307.4425 15.34908415198134
JILIN-1 GAOFEN 03D47    
1 54692U 22167L   26186.31910201  .00013900  00000+0  42171-3 0  9994
2 54692  97.6949 356.6444 0008502  60.6918 299.5173 15.34197563198120
JILIN-1 GAOFEN 03D49    
1 54694U 22167N   26186.29330340  .00015831  00000+0  42704-3 0  9990
2 54694  97.6826 357.2334 0006594  78.2749 281.9235 15.37865231198274
JILIN-1 GAOFEN 03D48    
1 54695U 22167P   26186.31702674  .00014823  00000+0  42964-3 0  9995
2 54695  97.6898 356.6094 0007176  60.9554 299.2407 15.35635373198171
JILIN-1 KUANFU 02A      
1 57696U 23127A   26186.28424153  .00007507  00000+0  45575-3 0  9997
2 57696  97.5563 279.8737 0010031 275.6502  84.3583 15.10757356158369
JILIN-01 KUANFU 02B 1   
1 61189U 24169A   26186.28649343  .00005464  00000+0  34942-3 0  9992
2 61189  97.5569 275.5290 0002429  20.3311 339.8014 15.09011262 98557
JILIN-01 KUANFU 02B 2   
1 61190U 24169B   26186.26586949  .00006650  00000+0  42471-3 0  9998
2 61190  97.5563 274.8947 0005290 321.9223  38.1631 15.08973489 98556
JILIN-01 KUANFU 02B 3   
1 61191U 24169C   26186.27505079  .00006229  00000+0  39716-3 0  9995
2 61191  97.5557 275.3365 0012408 242.5589 117.4378 15.09010831 98555
JILIN-01 KUANFU 02B 4   
1 61192U 24169D   26186.17739793  .00006515  00000+0  41531-3 0  9993
2 61192  97.5530 274.7718 0013049 196.9096 163.1700 15.08995574 98540
JILIN-01 KUANFU 02B 5   
1 61193U 24169E   26186.29727354  .00005659  00000+0  36100-3 0  9991
2 61193  97.5575 275.6800 0012211 221.8567 138.1729 15.09030943 98569
JILIN-01 KUANFU 02B 6   
1 61194U 24169F   26186.18802974  .00006360  00000+0  40528-3 0  9991
2 61194  97.5557 275.4679 0015047 258.3301 101.6239 15.08991224 98550
JILIN GAOFEN OBJECT A   
1 68691U 26080A   26185.06116481  .00006260  00000+0  39809-3 0  9990
2 68691  97.6614 260.5556 0012282  15.1953 344.9642 15.09112385 12205
JILIN GAOFEN OBJECT B   
1 68692U 26080B   26185.90449776  .00009242  00000+0  58618-3 0  9992
2 68692  97.6582 261.4160 0015688 349.8167  10.2742 15.09033071 12330
JILIN GAOFEN OBJECT C   
1 68693U 26080C   26185.59020844  .00008525  00000+0  54046-3 0  9993
2 68693  97.6596 261.0703 0012841 354.1079   5.9996 15.09108820 12285
JILIN GAOFEN OBJECT D   
1 68694U 26080D   26186.30226332  .00007987  00000+0  50886-3 0  9993
2 68694  97.6647 261.8806 0017347   0.1192   0.0037 15.08894691 12374
JILIN GAOFEN OBJECT E   
1 68695U 26080E   26186.28583146  .00008296  00000+0  52485-3 0  9991
2 68695  97.6634 261.8828 0013378  11.9812 348.1733 15.09190254 12356
