{"fetched_at":"2026-07-05T12:48:02.422Z","source":"https://celestrak.org/NORAD/elements/gp.php?NAME=JILIN&FORMAT=JSON","constellation":"jilin-1","records":[{"OBJECT_NAME":"JILIN-1 GAOFEN 03D50","OBJECT_ID":"2022-167J","EPOCH":"2026-07-05T07:40:30.763200","CLASSIFICATION_TYPE":"U","MEAN_MOTION":15.34908415,"ECCENTRICITY":0.00060193,"INCLINATION":97.6851,"RA_OF_ASC_NODE":354.9091,"ARG_OF_PERICENTER":52.7365,"MEAN_ANOMALY":307.4425,"EPHEMERIS_TYPE":0,"NORAD_CAT_ID":54690,"ELEMENT_SET_NO":999,"REV_AT_EPOCH":19813,"BSTAR":0.00042196091,"MEAN_MOTION_DOT":0.00014218,"MEAN_MOTION_DDOT":0},{"OBJECT_NAME":"JILIN-1 GAOFEN 03D47","OBJECT_ID":"2022-167L","EPOCH":"2026-07-05T07:39:30.413664","CLASSIFICATION_TYPE":"U","MEAN_MOTION":15.34197563,"ECCENTRICITY":0.00085029,"INCLINATION":97.6949,"RA_OF_ASC_NODE":356.6444,"ARG_OF_PERICENTER":60.6918,"MEAN_ANOMALY":299.5173,"EPHEMERIS_TYPE":0,"NORAD_CAT_ID":54692,"ELEMENT_SET_NO":999,"REV_AT_EPOCH":19812,"BSTAR":0.00042170915,"MEAN_MOTION_DOT":0.000139,"MEAN_MOTION_DDOT":0},{"OBJECT_NAME":"JILIN-1 GAOFEN 03D49","OBJECT_ID":"2022-167N","EPOCH":"2026-07-05T07:02:21.413760","CLASSIFICATION_TYPE":"U","MEAN_MOTION":15.37865231,"ECCENTRICITY":0.00065949,"INCLINATION":97.6826,"RA_OF_ASC_NODE":357.2334,"ARG_OF_PERICENTER":78.2749,"MEAN_ANOMALY":281.9235,"EPHEMERIS_TYPE":0,"NORAD_CAT_ID":54694,"ELEMENT_SET_NO":999,"REV_AT_EPOCH":19827,"BSTAR":0.00042704374,"MEAN_MOTION_DOT":0.00015831,"MEAN_MOTION_DDOT":0},{"OBJECT_NAME":"JILIN-1 GAOFEN 03D48","OBJECT_ID":"2022-167P","EPOCH":"2026-07-05T07:36:31.110336","CLASSIFICATION_TYPE":"U","MEAN_MOTION":15.35635373,"ECCENTRICITY":0.00071765,"INCLINATION":97.6898,"RA_OF_ASC_NODE":356.6094,"ARG_OF_PERICENTER":60.9554,"MEAN_ANOMALY":299.2407,"EPHEMERIS_TYPE":0,"NORAD_CAT_ID":54695,"ELEMENT_SET_NO":999,"REV_AT_EPOCH":19817,"BSTAR":0.0004296354,"MEAN_MOTION_DOT":0.00014823,"MEAN_MOTION_DDOT":0},{"OBJECT_NAME":"JILIN-1 KUANFU 02A","OBJECT_ID":"2023-127A","EPOCH":"2026-07-05T06:49:18.468192","CLASSIFICATION_TYPE":"U","MEAN_MOTION":15.10757356,"ECCENTRICITY":0.00100319,"INCLINATION":97.5563,"RA_OF_ASC_NODE":279.8737,"ARG_OF_PERICENTER":275.6502,"MEAN_ANOMALY":84.3583,"EPHEMERIS_TYPE":0,"NORAD_CAT_ID":57696,"ELEMENT_SET_NO":999,"REV_AT_EPOCH":15836,"BSTAR":0.00045575386,"MEAN_MOTION_DOT":0.00007507,"MEAN_MOTION_DDOT":0},{"OBJECT_NAME":"JILIN-01 KUANFU 02B 1","OBJECT_ID":"2024-169A","EPOCH":"2026-07-05T06:52:33.032352","CLASSIFICATION_TYPE":"U","MEAN_MOTION":15.09011262,"ECCENTRICITY":0.00024297,"INCLINATION":97.5569,"RA_OF_ASC_NODE":275.529,"ARG_OF_PERICENTER":20.3311,"MEAN_ANOMALY":339.8014,"EPHEMERIS_TYPE":0,"NORAD_CAT_ID":61189,"ELEMENT_SET_NO":999,"REV_AT_EPOCH":9855,"BSTAR":0.00034942417,"MEAN_MOTION_DOT":0.00005464,"MEAN_MOTION_DDOT":0},{"OBJECT_NAME":"JILIN-01 KUANFU 02B 2","OBJECT_ID":"2024-169B","EPOCH":"2026-07-05T06:22:51.123936","CLASSIFICATION_TYPE":"U","MEAN_MOTION":15.08973489,"ECCENTRICITY":0.000529,"INCLINATION":97.5563,"RA_OF_ASC_NODE":274.8947,"ARG_OF_PERICENTER":321.9223,"MEAN_ANOMALY":38.1631,"EPHEMERIS_TYPE":0,"NORAD_CAT_ID":61190,"ELEMENT_SET_NO":999,"REV_AT_EPOCH":9855,"BSTAR":0.00042470907,"MEAN_MOTION_DOT":0.0000665,"MEAN_MOTION_DDOT":0},{"OBJECT_NAME":"JILIN-01 KUANFU 02B 3","OBJECT_ID":"2024-169C","EPOCH":"2026-07-05T06:36:04.388256","CLASSIFICATION_TYPE":"U","MEAN_MOTION":15.09010831,"ECCENTRICITY":0.00124085,"INCLINATION":97.5557,"RA_OF_ASC_NODE":275.3365,"ARG_OF_PERICENTER":242.5589,"MEAN_ANOMALY":117.4378,"EPHEMERIS_TYPE":0,"NORAD_CAT_ID":61191,"ELEMENT_SET_NO":999,"REV_AT_EPOCH":9855,"BSTAR":0.0003971622,"MEAN_MOTION_DOT":0.00006229,"MEAN_MOTION_DDOT":0},{"OBJECT_NAME":"JILIN-01 KUANFU 02B 4","OBJECT_ID":"2024-169D","EPOCH":"2026-07-05T04:15:27.181152","CLASSIFICATION_TYPE":"U","MEAN_MOTION":15.08995574,"ECCENTRICITY":0.00130497,"INCLINATION":97.553,"RA_OF_ASC_NODE":274.7718,"ARG_OF_PERICENTER":196.9096,"MEAN_ANOMALY":163.17,"EPHEMERIS_TYPE":0,"NORAD_CAT_ID":61192,"ELEMENT_SET_NO":999,"REV_AT_EPOCH":9854,"BSTAR":0.00041530851,"MEAN_MOTION_DOT":0.00006515,"MEAN_MOTION_DDOT":0},{"OBJECT_NAME":"JILIN-01 KUANFU 02B 5","OBJECT_ID":"2024-169E","EPOCH":"2026-07-05T07:08:04.433856","CLASSIFICATION_TYPE":"U","MEAN_MOTION":15.09030943,"ECCENTRICITY":0.00122112,"INCLINATION":97.5575,"RA_OF_ASC_NODE":275.68,"ARG_OF_PERICENTER":221.8567,"MEAN_ANOMALY":138.1729,"EPHEMERIS_TYPE":0,"NORAD_CAT_ID":61193,"ELEMENT_SET_NO":999,"REV_AT_EPOCH":9856,"BSTAR":0.00036100074,"MEAN_MOTION_DOT":0.00005659,"MEAN_MOTION_DDOT":0},{"OBJECT_NAME":"JILIN-01 KUANFU 02B 6","OBJECT_ID":"2024-169F","EPOCH":"2026-07-05T04:30:45.769536","CLASSIFICATION_TYPE":"U","MEAN_MOTION":15.08991224,"ECCENTRICITY":0.00150478,"INCLINATION":97.5557,"RA_OF_ASC_NODE":275.4679,"ARG_OF_PERICENTER":258.3301,"MEAN_ANOMALY":101.6239,"EPHEMERIS_TYPE":0,"NORAD_CAT_ID":61194,"ELEMENT_SET_NO":999,"REV_AT_EPOCH":9855,"BSTAR":0.0004052841,"MEAN_MOTION_DOT":0.0000636,"MEAN_MOTION_DDOT":0},{"OBJECT_NAME":"JILIN GAOFEN OBJECT A","OBJECT_ID":"2026-080A","EPOCH":"2026-07-04T01:28:04.639584","CLASSIFICATION_TYPE":"U","MEAN_MOTION":15.09112385,"ECCENTRICITY":0.00122821,"INCLINATION":97.6614,"RA_OF_ASC_NODE":260.5556,"ARG_OF_PERICENTER":15.1953,"MEAN_ANOMALY":344.9642,"EPHEMERIS_TYPE":0,"NORAD_CAT_ID":68691,"ELEMENT_SET_NO":999,"REV_AT_EPOCH":1220,"BSTAR":0.00039809366,"MEAN_MOTION_DOT":0.0000626,"MEAN_MOTION_DDOT":0},{"OBJECT_NAME":"JILIN GAOFEN OBJECT B","OBJECT_ID":"2026-080B","EPOCH":"2026-07-04T21:42:28.606464","CLASSIFICATION_TYPE":"U","MEAN_MOTION":15.09033071,"ECCENTRICITY":0.00156881,"INCLINATION":97.6582,"RA_OF_ASC_NODE":261.416,"ARG_OF_PERICENTER":349.8167,"MEAN_ANOMALY":10.2742,"EPHEMERIS_TYPE":0,"NORAD_CAT_ID":68692,"ELEMENT_SET_NO":999,"REV_AT_EPOCH":1233,"BSTAR":0.00058617653,"MEAN_MOTION_DOT":0.00009242,"MEAN_MOTION_DDOT":0},{"OBJECT_NAME":"JILIN GAOFEN OBJECT C","OBJECT_ID":"2026-080C","EPOCH":"2026-07-04T14:09:54.009216","CLASSIFICATION_TYPE":"U","MEAN_MOTION":15.0910882,"ECCENTRICITY":0.00128414,"INCLINATION":97.6596,"RA_OF_ASC_NODE":261.0703,"ARG_OF_PERICENTER":354.1079,"MEAN_ANOMALY":5.9996,"EPHEMERIS_TYPE":0,"NORAD_CAT_ID":68693,"ELEMENT_SET_NO":999,"REV_AT_EPOCH":1228,"BSTAR":0.00054045966,"MEAN_MOTION_DOT":0.00008525,"MEAN_MOTION_DDOT":0},{"OBJECT_NAME":"JILIN GAOFEN OBJECT D","OBJECT_ID":"2026-080D","EPOCH":"2026-07-05T07:15:15.550848","CLASSIFICATION_TYPE":"U","MEAN_MOTION":15.08894691,"ECCENTRICITY":0.00173473,"INCLINATION":97.6647,"RA_OF_ASC_NODE":261.8806,"ARG_OF_PERICENTER":0.1192,"MEAN_ANOMALY":0.0037,"EPHEMERIS_TYPE":0,"NORAD_CAT_ID":68694,"ELEMENT_SET_NO":999,"REV_AT_EPOCH":1237,"BSTAR":0.00050886329,"MEAN_MOTION_DOT":0.00007987,"MEAN_MOTION_DDOT":0},{"OBJECT_NAME":"JILIN GAOFEN OBJECT E","OBJECT_ID":"2026-080E","EPOCH":"2026-07-05T06:51:35.838144","CLASSIFICATION_TYPE":"U","MEAN_MOTION":15.09190254,"ECCENTRICITY":0.00133785,"INCLINATION":97.6634,"RA_OF_ASC_NODE":261.8828,"ARG_OF_PERICENTER":11.9812,"MEAN_ANOMALY":348.1733,"EPHEMERIS_TYPE":0,"NORAD_CAT_ID":68695,"ELEMENT_SET_NO":999,"REV_AT_EPOCH":1235,"BSTAR":0.00052485131,"MEAN_MOTION_DOT":0.00008296,"MEAN_MOTION_DDOT":0}]}
